IRIDIUM 144             
1 43249U 18030A   24139.80025137  .00000212  00000+0  68533-4 0  9992
2 43249  86.3979 247.7359 0002179 100.4184 259.7258 14.34217441321296
IRIDIUM 149             
1 43250U 18030B   24139.80659274  .00000563  00000+0  19397-3 0  9991
2 43250  86.3966 247.7069 0001745  86.9859 273.1536 14.34218103321315
IRIDIUM 157             
1 43251U 18030C   24139.82563408  .00000936  00000+0  32714-3 0  9999
2 43251  86.3979 247.7371 0002484  93.6122 266.5358 14.34221069321295
IRIDIUM 140             
1 43252U 18030D   24139.84468559  .00000924  00000+0  32275-3 0  9992
2 43252  86.3979 247.7437 0001756  95.2805 264.8591 14.34224407321352
IRIDIUM 145             
1 43253U 18030E   24139.83197845  .00000512  00000+0  17560-3 0  9992
2 43253  86.3981 247.7228 0002141 106.9843 253.1588 14.34219515321288
IRIDIUM 146             
1 43254U 18030F   24139.81293319  .00000808  00000+0  28148-3 0  9996
2 43254  86.3979 247.7453 0002086 101.3162 258.8268 14.34217563321296
IRIDIUM 148             
1 43255U 18030G   24139.78122352  .00000624  00000+0  21578-3 0  9997
2 43255  86.3980 247.7903 0002355  98.6815 261.4648 14.34217046321323
IRIDIUM 142             
1 43256U 18030H   24139.81928474  .00000760  00000+0  26415-3 0  9997
2 43256  86.3977 247.6912 0002154 104.0195 256.1240 14.34223400321295
